     2.100          NAVIGATION                              RINEX VERSION / TYPE
fic2rin                                 02/20/2016 00:17:12 PGM / RUN BY / DATE
                                                            END OF HEADER
16 16  2 19  1 59 44.0 -.386671163142D-04  .306954461848D-11  .000000000000D+00
     .270000000000D+02  .747812500000D+02  .411302846700D-08  .263111068725D+01
     .384449958801D-05  .856280594599D-02  .388175249100D-05  .515371025658D+04
     .439184000000D+06 -.167638063431D-06 -.243796121386D+01 -.117346644402D-06
     .990911472835D+00  .322500000000D+03  .326466870061D+00 -.796533178804D-08
     .251796202608D-09  .100000000000D+01  .188400000000D+04  .000000000000D+00
     .240000000000D+01  .000000000000D+00 -.102445483208D-07  .270000000000D+02
     .432006000000D+06  .400000000000D+01
22 16  2 19  1 59 44.0  .394910573959D-03 -.602540239925D-11  .000000000000D+00
     .100000000000D+02  .259687500000D+02  .557844665041D-08  .197963059323D+01
     .122003257275D-05  .766729365569D-02  .719167292118D-05  .515508164597D+04
     .439184000000D+06 -.298023223877D-07  .605686802406D+00 -.186264514923D-06
     .923043707081D+00  .220625000000D+03 -.201985500922D+01 -.848213902942D-08
     .433946647048D-09  .100000000000D+01  .188400000000D+04  .000000000000D+00
     .240000000000D+01  .000000000000D+00 -.176951289177D-07  .100000000000D+02
     .432006000000D+06  .400000000000D+01
 1 16  2 19  2  0  0.0  .121230259538D-04  .102318153949D-11  .000000000000D+00
     .870000000000D+02 -.704687500000D+02  .420160358508D-08 -.466909684274D+00
    -.376068055630D-05  .507612910587D-02  .115912407637D-04  .515365909004D+04
     .439200000000D+06  .838190317154D-07 -.406247076793D+00  .117346644402D-06
     .964129443884D+00  .156468750000D+03  .464587600258D+00 -.788890003292D-08
     .660741808263D-10  .100000000000D+01  .188400000000D+04  .000000000000D+00
     .240000000000D+01  .000000000000D+00  .512227416039D-08  .870000000000D+02
     .432006000000D+06  .400000000000D+01
 2 16  2 19  2  0  0.0  .599534716457D-03 -.113686837722D-12  .000000000000D+00
     .710000000000D+02 -.662500000000D+02  .482091509618D-08  .451880180338D-02
    -.336579978466D-05  .154445024673D-01  .103488564491D-04  .515372678947D+04
     .439200000000D+06 -.391155481339D-07 -.449614033921D+00  .270083546638D-06
     .942835963188D+00  .175187500000D+03 -.216375543616D+01 -.834891919457D-08
     .378587198248D-10  .100000000000D+01  .188400000000D+04  .000000000000D+00
     .240000000000D+01  .000000000000D+00 -.204890966415D-07  .710000000000D+02
     .432006000000D+06  .400000000000D+01
 3 16  2 19  2  0  0.0 -.263359397650D-04 -.466116034659D-11  .000000000000D+00
     .830000000000D+02  .252187500000D+02  .469412410054D-08  .208048892741D+01
     .136718153954D-05  .274431309663D-03  .752136111259D-05  .515375771141D+04
     .439200000000D+06 -.149011611938D-07  .634473545536D+00 -.596046447754D-07
     .959431449245D+00  .235406250000D+03  .312909081462D+01 -.805676416800D-08
     .388944772540D-09  .100000000000D+01  .188400000000D+04  .000000000000D+00
     .240000000000D+01  .000000000000D+00  .186264514923D-08  .830000000000D+02
     .432006000000D+06  .400000000000D+01
 5 16  2 19  2  0  0.0 -.144822057337D-03  .341060513165D-11  .000000000000D+00
     .630000000000D+02  .294062500000D+02  .502092342733D-08  .246397847313D+01
     .151805579662D-05  .457587779965D-02  .725686550140D-05  .515372962189D+04
     .439200000000D+06 -.689178705215D-07  .623879844745D+00 -.540167093277D-07
     .946546676840D+00  .233312500000D+03  .479551078313D+00 -.822569977627D-08
     .446090010011D-09  .100000000000D+01  .188400000000D+04  .000000000000D+00
     .240000000000D+01  .000000000000D+00 -.107102096081D-07  .630000000000D+02
     .432006000000D+06  .400000000000D+01
 6 16  2 19  2  0  0.0  .147709622979D-03  .602540239925D-11  .000000000000D+00
     .470000000000D+02 -.678750000000D+02  .415945897245D-08  .413847562344D+00
    -.347383320332D-05  .308269984089D-03  .109989196062D-04  .515364384460D+04
     .439200000000D+06 -.167638063431D-07 -.414693702457D+00  .298023223877D-07
     .963970824066D+00  .171093750000D+03 -.196482373811D+01 -.778210987040D-08
     .753602819154D-10  .100000000000D+01  .188400000000D+04  .000000000000D+00
     .240000000000D+01  .000000000000D+00  .419095158577D-08  .470000000000D+02
     .432006000000D+06  .400000000000D+01
 7 16  2 19  2  0  0.0  .469003338367D-03 -.170530256582D-11  .000000000000D+00
     .350000000000D+02  .720937500000D+02  .415945897245D-08 -.117570685451D+01
     .366382300854D-05  .908198382240D-02  .113025307655D-04  .515367683029D+04
     .439200000000D+06  .178813934326D-06  .275302945928D+01 -.670552253723D-07
     .967635888822D+00  .161875000000D+03 -.268222680336D+01 -.776996650744D-08
    -.596453416107D-10  .100000000000D+01  .188400000000D+04  .000000000000D+00
     .240000000000D+01  .000000000000D+00 -.111758708954D-07  .350000000000D+02
     .432006000000D+06  .400000000000D+01
 8 16  2 19  2  0  0.0 -.244188122451D-04 -.147792889038D-11  .000000000000D+00
     .440000000000D+02 -.913125000000D+02  .472698261209D-08  .280164297606D+01
    -.449456274509D-05  .181704608258D-02  .376999378204D-05  .515365327072D+04
     .439200000000D+06  .987201929092D-07 -.146608430651D+01  .931322574615D-08
     .961904038273D+00  .304062500000D+03 -.135670265172D+01 -.841642200633D-08
    -.327870799992D-09  .100000000000D+01  .188400000000D+04  .000000000000D+00
     .240000000000D+01  .000000000000D+00  .465661287308D-08  .440000000000D+02
     .432006000000D+06  .400000000000D+01
 9 16  2 19  2  0  0.0  .735577195883D-04  .761701812735D-11  .000000000000D+00
     .101000000000D+03 -.200937500000D+02  .486270255108D-08  .161653673684D+01
    -.101700425148D-05  .656829099171D-03  .681914389133D-05  .515362826347D+04
     .439200000000D+06  .465661287308D-07  .167516083528D+01 -.149011611938D-07
     .955183279972D+00  .244812500000D+03  .193031338651D+01 -.818891252965D-08
    -.332156692802D-09  .100000000000D+01  .188400000000D+04  .000000000000D+00
     .240000000000D+01  .000000000000D+00  .139698386192D-08  .101000000000D+03
     .432006000000D+06  .400000000000D+01
10 16  2 19  2  0  0.0  .415346585214D-04 -.511590769747D-11  .000000000000D+00
     .800000000000D+02  .258437500000D+02  .466376569313D-08 -.261916257447D+01
     .134855508804D-05  .116039521527D-02  .744499266148D-05  .515367990685D+04
     .439200000000D+06  .223517417908D-07  .630383058350D+00  .335276126862D-07
     .959695305539D+00  .237906250000D+03 -.288449373374D+01 -.804854954011D-08
     .462519265784D-09  .100000000000D+01  .188400000000D+04  .000000000000D+00
     .240000000000D+01  .000000000000D+00  .232830643654D-08  .800000000000D+02
     .432006000000D+06  .400000000000D+01
11 16  2 19  2  0  0.0 -.632978975773D-03 -.170530256582D-11  .000000000000D+00
     .990000000000D+02 -.104906250000D+03  .594846206304D-08 -.105593452709D+01
    -.530481338501D-05  .162225484382D-01  .948645174503D-05  .515365777588D+04
     .439200000000D+06 -.253319740295D-06 -.776172804496D+00  .273808836937D-06
     .895777778477D+00  .160625000000D+03  .150129065455D+01 -.896858786340D-08
    -.146077513286D-09  .100000000000D+01  .188400000000D+04  .000000000000D+00
     .340000000000D+01  .000000000000D+00 -.121071934700D-07  .990000000000D+02
     .432006000000D+06  .400000000000D+01
12 16  2 19  2  0  0.0  .368973240256D-03  .170530256582D-11  .000000000000D+00
     .103000000000D+03  .732812500000D+02  .412374319903D-08 -.158203512179D+01
     .384449958801D-05  .585767230950D-02  .401400029659D-05  .515378206062D+04
     .439200000000D+06  .931322574615D-07 -.245671326353D+01 -.186264514923D-08
     .990405443619D+00  .318843750000D+03  .671122708235D+00 -.798783272530D-08
     .313227332890D-09  .100000000000D+01  .188400000000D+04  .000000000000D+00
     .340000000000D+01  .000000000000D+00 -.121071934700D-07  .103000000000D+03
     .432006000000D+06  .400000000000D+01
13 16  2 19  2  0  0.0 -.186230521649D-03 -.250111042988D-11  .000000000000D+00
     .620000000000D+02 -.239062500000D+02  .448840124564D-08 -.221980692147D+00
    -.136531889439D-05  .466693891212D-02  .745244324207D-05  .515367806053D+04
     .439200000000D+06 -.745058059692D-07  .179443566668D+01 -.782310962677D-07
     .971679439743D+00  .241312500000D+03  .198470706379D+01 -.805104964425D-08
    -.362872257943D-09  .100000000000D+01  .188400000000D+04  .000000000000D+00
     .240000000000D+01  .000000000000D+00 -.111758708954D-07  .620000000000D+02
     .432006000000D+06  .400000000000D+01
14 16  2 19  2  0  0.0  .224728137255D-05 -.227373675443D-11  .000000000000D+00
     .610000000000D+02 -.182812500000D+02  .458733393801D-08  .160674873526D+01
    -.933185219765D-06  .832412485033D-02  .733695924282D-05  .515372243309D+04
     .439200000000D+06 -.176951289177D-06  .175801227028D+01 -.128522515297D-06
     .964161755356D+00  .238156250000D+03 -.195296247439D+01 -.808069373619D-08
    -.305727020472D-09  .100000000000D+01  .188400000000D+04  .000000000000D+00
     .240000000000D+01  .000000000000D+00 -.931322574615D-08  .610000000000D+02
     .432006000000D+06  .400000000000D+01
15 16  2 19  2  0  0.0 -.297866761684D-03 -.181898940355D-11  .000000000000D+00
     .460000000000D+02 -.233437500000D+02  .548451416632D-08  .782761783136D+00
    -.112317502499D-05  .805936567485D-02  .616721808910D-05  .515379408073D+04
     .439200000000D+06 -.670552253723D-07  .162498962819D+01  .121071934700D-06
     .930949503635D+00  .244531250000D+03  .484798024184D+00 -.857928593312D-08
    -.342871424828D-09  .100000000000D+01  .188400000000D+04  .000000000000D+00
     .240000000000D+01  .000000000000D+00 -.107102096081D-07  .460000000000D+02
     .432006000000D+06  .400000000000D+01
